OBJECT B                
1 51825U 22019B   25099.82951284  .00034319  00000+0  93303-3 0  9999
2 51825  97.3894 175.9657 0009717 262.0301  97.9841 15.37427989172554
